[c2002v1(neat)]
absolute_magnitude             = 8
albedo                         = 0.1
discovery                      = 2002-11-06
dust_brightnessfactor          = 1.5
dust_lengthfactor              = 0.4
dust_widthfactor               = 1.5
iau_designation                = C/2002 V1
name                           = NEAT
orbit_ArgOfPericenter          = 152.1696864278609
orbit_AscendingNode            = 64.08842957735027
orbit_Eccentricity             = 0.9999017748627322
orbit_Epoch                    = 2452634.5
orbit_Inclination              = 81.7060566720839
orbit_PericenterDistance       = 0.09925816829043009
orbit_TimeAtPericenter         = 2452688.795747801936
orbit_good                     = 1000
radius                         = 5
slope_parameter                = 4
type                           = comet

[c2011w3(lovejoy)]
absolute_magnitude             = 14.5
albedo                         = 0.1
discoverer                     = T. Lovejoy
discovery                      = 2011-11-27
dust_brightnessfactor          = 1.5
dust_lengthfactor              = 0.4
dust_widthfactor               = 1.5
iau_designation                = C/2011 W3
name                           = Lovejoy
orbit_ArgOfPericenter          = 53.50921241435645
orbit_AscendingNode            = 326.3691470244605
orbit_Eccentricity             = 0.9999294152687143
orbit_Epoch                    = 2455901.5
orbit_Inclination              = 134.3558107377023
orbit_PericenterDistance       = 0.005553814151232848
orbit_TimeAtPericenter         = 2455911.511809000032
orbit_good                     = 1000
radius                         = 5
slope_parameter                = 4
type                           = comet

[c2023a1(leonard)]
absolute_magnitude             = 12.9
discoverer                     = G.J. Leonard
discovery                      = 2023-01-09
iau_designation                = C/2023 A1
name                           = C/2023 A1 (Leonard)
orbit_ArgOfPericenter          = 159.2478
orbit_AscendingNode            = 318.2901
orbit_Eccentricity             = 0.991727
orbit_Epoch                    = 2460574.5
orbit_Inclination              = 94.738
orbit_PericenterDistance       = 1.835025
orbit_TimeAtPericenter         = 2460022.1643
orbit_good                     = 1000
ref                            = MPEC 2023-KD6
slope_parameter                = 4
type                           = comet

[c2023a2(swan)]
absolute_magnitude             = 13.5
discoverer                     = V. Bezugly
discovery                      = 2023-01-06
iau_designation                = C/2023 A2
name                           = C/2023 A2 (SWAN)
orbit_ArgOfPericenter          = 142.5325
orbit_AscendingNode            = 94.4965
orbit_Eccentricity             = 0.997792
orbit_Epoch                    = 2460574.5
orbit_Inclination              = 94.7087
orbit_PericenterDistance       = 0.946393
orbit_TimeAtPericenter         = 2459964.8635
orbit_good                     = 1000
ref                            = MPEC 2023-J95
slope_parameter                = 4
type                           = comet

[c2023a3(tsuchinshanatlas)]
absolute_magnitude             = 4.5
discovery                      = 2023-01-09
iau_designation                = C/2023 A3
name                           = C/2023 A3 (Tsuchinshan-ATLAS)
orbit_ArgOfPericenter          = 308.4937
orbit_AscendingNode            = 21.5594
orbit_Eccentricity             = 1.000092
orbit_Epoch                    = 2460574.5
orbit_Inclination              = 139.1105
orbit_PericenterDistance       = 0.391411
orbit_TimeAtPericenter         = 2460581.2408
orbit_good                     = 1000
ref                            = MPEC 2023-R20
slope_parameter                = 4
type                           = comet

[c2023b2(atlas)]
absolute_magnitude             = 13
discovery                      = 2023-01-21
iau_designation                = C/2023 B2
name                           = C/2023 B2 (ATLAS)
orbit_ArgOfPericenter          = 317.3678
orbit_AscendingNode            = 218.1136
orbit_Eccentricity             = 0.997058
orbit_Epoch                    = 2460574.5
orbit_Inclination              = 40.7696
orbit_PericenterDistance       = 1.741893
orbit_TimeAtPericenter         = 2460014.0077
orbit_good                     = 1000
ref                            = MPEC 2023-O39
slope_parameter                = 4
type                           = comet

[c2023c2(atlas)]
absolute_magnitude             = 7
discovery                      = 2023-02-01
iau_designation                = C/2023 C2
name                           = C/2023 C2 (ATLAS)
orbit_ArgOfPericenter          = 357.4579
orbit_AscendingNode            = 301.0045
orbit_Eccentricity             = 0.999213
orbit_Epoch                    = 2460574.5
orbit_Inclination              = 48.3191
orbit_PericenterDistance       = 2.368485
orbit_TimeAtPericenter         = 2460631.3134
orbit_good                     = 1000
ref                            = MPEC 2023-OA6
slope_parameter                = 4
type                           = comet

[c2023e1(atlas)]
absolute_magnitude             = 10.4
discovery                      = 2023-03-01
iau_designation                = C/2023 E1
name                           = C/2023 E1 (ATLAS)
orbit_ArgOfPericenter          = 105.9616
orbit_AscendingNode            = 164.5235
orbit_Eccentricity             = 0.946853
orbit_Epoch                    = 2460574.5
orbit_Inclination              = 38.2832
orbit_PericenterDistance       = 1.027449
orbit_TimeAtPericenter         = 2460126.5348
orbit_good                     = 1000
ref                            = MPEC 2023-R20
slope_parameter                = 7.4
type                           = comet

[c2023f1(panstarrs)]
absolute_magnitude             = 16
discovery                      = 2023-03-27
iau_designation                = C/2023 F1
name                           = C/2023 F1 (PANSTARRS)
orbit_ArgOfPericenter          = 216.7404
orbit_AscendingNode            = 25.2939
orbit_Eccentricity             = 0.993513
orbit_Epoch                    = 2460574.5
orbit_Inclination              = 131.7115
orbit_PericenterDistance       = 1.709917
orbit_TimeAtPericenter         = 2460123.8324
orbit_good                     = 1000
ref                            = MPEC 2023-N01
slope_parameter                = 4
type                           = comet

[c2023f2(soho)]
absolute_magnitude             = 19
iau_designation                = C/2023 F2
name                           = C/2023 F2 (SOHO)
orbit_ArgOfPericenter          = 57.6818
orbit_AscendingNode            = 71.5075
orbit_Eccentricity             = 1.0113
orbit_Epoch                    = 2460204.5
orbit_Inclination              = 72.4503
orbit_PericenterDistance       = 0.034216
orbit_TimeAtPericenter         = 2460024.6659
orbit_good                     = 1000
ref                            = MPEC 2023-N01
slope_parameter                = 4
type                           = comet

